[{"OBJECT_NAME":"STARLINK-30396","OBJECT_ID":"2023-151A","EPOCH":"2026-03-09T04:06:00.336672","MEAN_MOTION":15.26736531,"ECCENTRICITY":0.00015868,"INCLINATION":43.0003,"RA_OF_ASC_NODE":339.234,"ARG_OF_PERICENTER":268.3218,"MEAN_ANOMALY":91.7451,"EPHEMERIS_TYPE":0,"CLASSIFICATION_TYPE":"U","NORAD_CAT_ID":57964,"ELEMENT_SET_NO":999,"REV_AT_EPOCH":13568,"BSTAR":-7.9425836e-5,"MEAN_MOTION_DOT":-2.389e-5,"MEAN_MOTION_DDOT":0},{"OBJECT_NAME":"FLOCK 4G-34","OBJECT_ID":"2025-009AT","EPOCH":"2026-03-09T17:34:06.952224","MEAN_MOTION":15.27131464,"ECCENTRICITY":6.743e-5,"INCLINATION":97.4004,"RA_OF_ASC_NODE":151.0149,"ARG_OF_PERICENTER":348.828,"MEAN_ANOMALY":11.2944,"EPHEMERIS_TYPE":0,"CLASSIFICATION_TYPE":"U","NORAD_CAT_ID":62650,"ELEMENT_SET_NO":999,"REV_AT_EPOCH":6372,"BSTAR":0.00049338357,"MEAN_MOTION_DOT":0.00013063,"MEAN_MOTION_DDOT":0}]
